*******************************************************************************
 Revised: July 31, 2013                  Sun                                 10

 PHYSICAL PROPERTIES (updated 2024-Oct-30):
  GM, km^3/s^2          = 132712440041.93938  Mass, 10^24 kg        = ~1988410
  Vol. mean radius, km  = 695700              Volume, 10^12 km^3    = 1412000
  Solar radius (IAU2015)= 695700 km           Mean density, g/cm^3  = 1.408
  Radius (photosphere)  = 696500 km           Angular diam at 1 AU  = 1919.3"
  Photosphere temp., K  = 6600 (bottom)       Photosphere temp., K  = 4400(top)
  Photospheric depth    = ~500 km             Chromospheric depth   = ~2500 km
  Flatness, f           = 0.00005             Adopted sid. rot. per.= 25.38 d
  Surface gravity       =  274.0 m/s^2        Escape speed, km/s    =  617.7
  Pole (RA,DEC), deg.   = (286.13, 63.87)     Obliquity to ecliptic = 7.25 deg.
  Solar constant (1 AU) = 1367.6 W/m^2        Luminosity, 10^24 J/s = 382.8
  Mass-energy conv rate = 4.260 x 10^9 kg/s   Effective temp, K     = 5772
  Sunspot cycle         = 11.4 yr             Cycle 24 sunspot min. = 2008 A.D.

  Motion relative to nearby stars = apex : R.A.= 271 deg.; DEC.= +30 deg.
                                    speed: 19.4 km/s (0.0112 au/day)
  Motion relative to 2.73K BB/CBR = apex : l= 264.7 +- 0.8; b= 48.2 +- 0.5 deg.
                                    speed: 369 +-11 km/s
*******************************************************************************


*******************************************************************************
Ephemeris / WWW_USER Mon Feb 24 11:47:46 2025 Pasadena, USA      / Horizons
*******************************************************************************
Target body name: Sun (10)                        {source: DE441}
Center body name: Solar System Barycenter (0)     {source: DE441}
Center-site name: BODY CENTER
*******************************************************************************
Start time      : A.D. 2022-Jun-01 00:00:00.0000 TDB
Stop  time      : A.D. 2024-Jun-01 00:00:00.0000 TDB
Step-size       : 1440 minutes
*******************************************************************************
Center geodetic : 0.0, 0.0, 0.0                   {E-lon(deg),Lat(deg),Alt(km)}
Center cylindric: 0.0, 0.0, 0.0                   {E-lon(deg),Dxy(km),Dz(km)}
Center radii    : (undefined)
Output units    : KM-S
Calendar mode   : Mixed Julian/Gregorian
Output type     : GEOMETRIC cartesian states
Output format   : 3 (position, velocity, LT, range, range-rate)
Reference frame : Ecliptic of J2000.0
*******************************************************************************
            JDTDB,            Calendar Date (TDB),                      X,                      Y,                      Z,                     VX,                     VY,                     VZ,                     LT,                     RG,                     RR,
**************************************************************************************************************************************************************************************************************************************************************************
$$SOE
2460206.500000000, A.D. 2023-Sep-19 00:00:00.0000, -1.260615469608210E+06, -3.177272034977600E+05,  3.201621630060233E+04,  6.678858659754328E-03, -1.377740933572665E-02, -3.949252488382425E-05,  4.337778838095518E+00,  1.300433380133039E+06, -3.109178270196352E-03,
2460207.500000000, A.D. 2023-Sep-20 00:00:00.0000, -1.260037476289326E+06, -3.189170388492172E+05,  3.201277964370261E+04,  6.700599820611896E-03, -1.376504508847296E-02, -4.005743562800809E-05,  4.336881450643014E+00,  1.300164350142875E+06, -3.118361011637554E-03,
2460208.500000000, A.D. 2023-Sep-21 00:00:00.0000, -1.259457609003214E+06, -3.201057981243163E+05,  3.200929477742067E+04,  6.722235323377918E-03, -1.375250159023313E-02, -4.060840838649143E-05,  4.335981423287041E+00,  1.299894528729561E+06, -3.127495874822071E-03,
2460209.500000000, A.D. 2023-Sep-22 00:00:00.0000, -1.258875877432949E+06, -3.212934662410754E+05,  3.200576292085927E+04,  6.743752562752952E-03, -1.373978861183071E-02, -4.114515076373421E-05,  4.335078771851613E+00,  1.299623920637016E+06, -3.136568920687627E-03,
2460210.500000000, A.D. 2023-Sep-23 00:00:00.0000, -1.258292292283205E+06, -3.224800290579110E+05,  3.200218530451226E+04,  6.765140608932030E-03, -1.372691810141190E-02, -4.166769778233843E-05,  4.334173516042727E+00,  1.299352531772952E+06, -3.145567268046272E-03,
2460211.500000000, A.D. 2023-Sep-24 00:00:00.0000, -1.257706865109819E+06, -3.236654735455323E+05,  3.199856314094906E+04,  6.786390753350390E-03, -1.371390375999964E-02, -4.217642721184803E-05,  4.333265679049174E+00,  1.299080369089191E+06, -3.154479713299627E-03,
2460212.500000000, A.D. 2023-Sep-25 00:00:00.0000, -1.257119608111295E+06, -3.248497879128094E+05,  3.199489759577217E+04,  6.807496886426305E-03, -1.370076044813134E-02, -4.267204568701981E-05,  4.332355286986179E+00,  1.298807440414882E+06, -3.163297231099159E-03,
2460213.500000000, A.D. 2023-Sep-26 00:00:00.0000, -1.256530533892615E+06, -3.260329616790805E+05,  3.199118976041605E+04,  6.828455726573207E-03, -1.368750352143490E-02, -4.315555537827507E-05,  4.331442368208381E+00,  1.298533754250532E+06, -3.172013351801930E-03,
2460214.500000000, A.D. 2023-Sep-27 00:00:00.0000, -1.255939655219523E+06, -3.272149856859607E+05,  3.198744062901822E+04,  6.849266814766016E-03, -1.367414811502256E-02, -4.362819497753453E-05,  4.330526952544058E+00,  1.298259319538432E+06, -3.180624328492098E-03,
2460215.500000000, A.D. 2023-Sep-28 00:00:00.0000, -1.255346984782503E+06, -3.283958520489528E+05,  3.198365108110257E+04,  6.869932301421551E-03, -1.366070847968130E-02, -4.409136586931185E-05,  4.329609070511733E+00,  1.297984145427808E+06, -3.189129094461697E-03,
2460216.500000000, A.D. 2023-Sep-29 00:00:00.0000, -1.254752534986643E+06, -3.295755540565075E+05,  3.197982187093467E+04,  6.890456568377398E-03, -1.364719743796581E-02, -4.454655297703343E-05,  4.328688752576551E+00,  1.297708241051878E+06, -3.197529035429826E-03,
2460217.500000000, A.D. 2023-Sep-30 00:00:00.0000, -1.254156317779411E+06, -3.307540860287382E+05,  3.197595362365305E+04,  6.910845738999079E-03, -1.363362599825768E-02, -4.499524825952311E-05,  4.327766028494198E+00,  1.297431615331173E+06, -3.205827617637635E-03,
2460218.500000000, A.D. 2023-Oct-01 00:00:00.0000, -1.253558344523507E+06, -3.319314431501561E+05,  3.197204683766200E+04,  6.931107133912123E-03, -1.362000313964326E-02, -4.543888318204060E-05,  4.326840926776693E+00,  1.297154276813383E+06, -3.214029923251487E-03,
2460219.500000000, A.D. 2023-Oct-02 00:00:00.0000, -1.252958625917065E+06, -3.331076212909905E+05,  3.196810189230098E+04,  6.951248728543344E-03, -1.360633576008047E-02, -4.587877470036122E-05,  4.325913474298787E+00,  1.296876233555353E+06, -3.222142148202477E-03,
2460220.500000000, A.D. 2023-Oct-03 00:00:00.0000, -1.252357171958825E+06, -3.342826168302982E+05,  3.196411905949605E+04,  6.971278661564504E-03, -1.359262876477470E-02, -4.631608737516116E-05,  4.324983696048140E+00,  1.296597493048197E+06, -3.230171114651155E-03,
2460221.500000000, A.D. 2023-Oct-04 00:00:00.0000, -1.251753991952223E+06, -3.354564264915765E+05,  3.196009851795946E+04,  6.991204830461593E-03, -1.357888526096253E-02, -4.675181217727448E-05,  4.324051615008643E+00,  1.296318062182311E+06, -3.238123840657455E-03,
2460222.500000000, A.D. 2023-Oct-05 00:00:00.0000, -1.251149094539938E+06, -3.366290471983834E+05,  3.195604036855034E+04,  7.011034591803950E-03, -1.356510681941248E-02, -4.718676035237075E-05,  4.323117252156094E+00,  1.296037947246081E+06, -3.246007193322159E-03,
2460223.500000000, A.D. 2023-Oct-06 00:00:00.0000, -1.250542487759972E+06, -3.378004759539600E+05,  3.195194464964858E+04,  7.030774559359710E-03, -1.355129376189166E-02, -4.762156838618997E-05,  4.322180626541106E+00,  1.295757153950738E+06, -3.253827628614256E-03,
2460224.500000000, A.D. 2023-Oct-07 00:00:00.0000, -1.249934179116140E+06, -3.389707097454553E+05,  3.194781135184217E+04,  7.050430462997337E-03, -1.353744543761807E-02, -4.805670764867261E-05,  4.321241755437285E+00,  1.295475687474778E+06, -3.261590991274117E-03,
2460225.500000000, A.D. 2023-Oct-08 00:00:00.0000, -1.249324175657205E+06, -3.401397454717995E+05,  3.194364043147404E+04,  7.070007120181287E-03, -1.352356050508265E-02, -4.849250480675523E-05,  4.320300654535624E+00,  1.295193552522244E+06, -3.269302420577183E-03,
2460226.500000000, A.D. 2023-Oct-09 00:00:00.0000, -1.248712484054786E+06, -3.413075798946497E+05,  3.193943182219146E+04,  7.089508435451707E-03, -1.350963715814357E-02, -4.892916025474921E-05,  4.319357338153323E+00,  1.294910753385322E+06, -3.276966295896405E-03,
2460227.500000000, A.D. 2023-Oct-10 00:00:00.0000, -1.248099110681059E+06, -3.424742096069023E+05,  3.193518544504049E+04,  7.108937449985898E-03, -1.349567332789326E-02, -4.936676916204429E-05,  4.318411819455968E+00,  1.294627294010957E+06, -3.284586235537456E-03,
2460228.500000000, A.D. 2023-Oct-11 00:00:00.0000, -1.247484061680211E+06, -3.436396310171997E+05,  3.193090121667999E+04,  7.128296413857709E-03, -1.348166684188008E-02, -4.980534111903318E-05,  4.317464110672683E+00,  1.294343178065347E+06, -3.292165127316344E-03,
2460229.500000000, A.D. 2023-Oct-12 00:00:00.0000, -1.246867343033091E+06, -3.448038403466219E+05,  3.192657905597509E+04,  7.147586873069251E-03, -1.346761554873160E-02, -5.024481831552609E-05,  4.316514223299420E+00,  1.294058408994894E+06, -3.299705181382177E-03,
2460230.500000000, A.D. 2023-Oct-13 00:00:00.0000, -1.246248960614091E+06, -3.459668336347048E+05,  3.192221888911456E+04,  7.166809761243007E-03, -1.345351741038424E-02, -5.068509150256938E-05,  4.315562168285115E+00,  1.293772990082004E+06, -3.307207995169357E-03,
